YAOGAN-30 03B           
1 43029U 17075B   26068.66083794  .00004149  00000+0  31129-3 0  9999
2 43029  34.9935 156.6050 0002510  89.1241 270.9754 15.02124587452380
STARLINK-6261           
1 56417U 23061AV  26068.39814768 -.00000062  00000+0  10452-4 0  9997
2 56417  43.0037 185.8059 0001380 266.6981  93.3703 15.02534676156868
