[{"OBJECT_NAME":"YAOGAN-30 03B","OBJECT_ID":"2017-075B","EPOCH":"2026-03-09T15:51:36.398016","MEAN_MOTION":15.02124587,"ECCENTRICITY":0.00025102,"INCLINATION":34.9935,"RA_OF_ASC_NODE":156.605,"ARG_OF_PERICENTER":89.1241,"MEAN_ANOMALY":270.9754,"EPHEMERIS_TYPE":0,"CLASSIFICATION_TYPE":"U","NORAD_CAT_ID":43029,"ELEMENT_SET_NO":999,"REV_AT_EPOCH":45238,"BSTAR":0.0003112917,"MEAN_MOTION_DOT":4.149e-5,"MEAN_MOTION_DDOT":0},{"OBJECT_NAME":"STARLINK-6261","OBJECT_ID":"2023-061AV","EPOCH":"2026-03-09T09:33:19.959552","MEAN_MOTION":15.02534676,"ECCENTRICITY":0.00013803,"INCLINATION":43.0037,"RA_OF_ASC_NODE":185.8059,"ARG_OF_PERICENTER":266.6981,"MEAN_ANOMALY":93.3703,"EPHEMERIS_TYPE":0,"CLASSIFICATION_TYPE":"U","NORAD_CAT_ID":56417,"ELEMENT_SET_NO":999,"REV_AT_EPOCH":15686,"BSTAR":1.04519e-5,"MEAN_MOTION_DOT":-6.2e-7,"MEAN_MOTION_DDOT":0}]
